{
  "type": "FeatureCollection",
  "features": [
    {
      "type": "Feature",
      "properties": {
        "norad_id": 40118,
        "name": "GAOFEN-2",
        "group": "resource",
        "lat": -17.041019353887087,
        "lon": -130.64573793973105,
        "alt_km": 633.4333276706357,
        "timestamp": "2025-12-18T15:47:10.877525+00:00",
        "meta_object_name": "GAOFEN-2",
        "meta_object_id": "2014-049A",
        "meta_epoch": "2025-12-18T06:47:24.611136",
        "meta_mean_motion": 14.80620503,
        "meta_eccentricity": 0.00087102,
        "meta_inclination": 98.0384,
        "meta_ra_of_asc_node": 51.4614,
        "meta_arg_of_pericenter": 97.6083,
        "meta_mean_anomaly": 262.6119,
        "meta_ephemeris_type": 0,
        "meta_classification_type": "U",
        "meta_norad_cat_id": 40118,
        "meta_element_set_no": 999,
        "meta_rev_at_epoch": 61246,
        "meta_bstar": 0.00013072291,
        "meta_mean_motion_dot": 9.5e-06,
        "meta_mean_motion_ddot": 0,
        "tle_line1": "1 40118U 14049A   25352.28292374  .00000950  00000+0  13072-3 0  9995",
        "tle_line2": "2 40118  98.0384  51.4614 0008710  97.6083 262.6119 14.80620503612463"
      },
      "geometry": {
        "type": "Point",
        "coordinates": [
          -130.64573793973105,
          -17.041019353887087
        ]
      }
    },
    {
      "type": "Feature",
      "properties": {
        "norad_id": 40143,
        "name": "YAOGAN-21",
        "group": "resource",
        "lat": -3.3072845895892327,
        "lon": 36.13087844839965,
        "alt_km": 492.3867714656353,
        "timestamp": "2025-12-18T15:47:10.877534+00:00",
        "meta_object_name": "YAOGAN-21",
        "meta_object_id": "2014-053A",
        "meta_epoch": "2025-12-18T06:20:39.776928",
        "meta_mean_motion": 15.23734277,
        "meta_eccentricity": 0.00091981,
        "meta_inclination": 97.1753,
        "meta_ra_of_asc_node": 35.3374,
        "meta_arg_of_pericenter": 23.5829,
        "meta_mean_anomaly": 336.5828,
        "meta_ephemeris_type": 0,
        "meta_classification_type": "U",
        "meta_norad_cat_id": 40143,
        "meta_element_set_no": 999,
        "meta_rev_at_epoch": 62738,
        "meta_bstar": 0.00020957293,
        "meta_mean_motion_dot": 4.974e-05,
        "meta_mean_motion_ddot": 0,
        "tle_line1": "1 40143U 14053A   25352.26434927  .00004974  00000+0  20957-3 0  9998",
        "tle_line2": "2 40143  97.1753  35.3374 0009198  23.5829 336.5828 15.23734277627389"
      },
      "geometry": {
        "type": "Point",
        "coordinates": [
          36.13087844839965,
          -3.3072845895892327
        ]
      }
    },
    {
      "type": "Feature",
      "properties": {
        "norad_id": 40275,
        "name": "YAOGAN-22",
        "group": "resource",
        "lat": 77.68535068330829,
        "lon": 75.75220655161354,
        "alt_km": 1198.4236421643964,
        "timestamp": "2025-12-18T15:47:10.877544+00:00",
        "meta_object_name": "YAOGAN-22",
        "meta_object_id": "2014-063A",
        "meta_epoch": "2025-12-18T06:14:04.433856",
        "meta_mean_motion": 13.15522919,
        "meta_eccentricity": 0.00059952,
        "meta_inclination": 100.7425,
        "meta_ra_of_asc_node": 135.7573,
        "meta_arg_of_pericenter": 234.7476,
        "meta_mean_anomaly": 125.3074,
        "meta_ephemeris_type": 0,
        "meta_classification_type": "U",
        "meta_norad_cat_id": 40275,
        "meta_element_set_no": 999,
        "meta_rev_at_epoch": 53602,
        "meta_bstar": 1.859078e-05,
        "meta_mean_motion_dot": -4e-07,
        "meta_mean_motion_ddot": 0,
        "tle_line1": "1 40275U 14063A   25352.25977354 -.00000040  00000+0  18591-4 0  9993",
        "tle_line2": "2 40275 100.7425 135.7573 0005995 234.7476 125.3074 13.15522919536027"
      },
      "geometry": {
        "type": "Point",
        "coordinates": [
          75.75220655161354,
          77.68535068330829
        ]
      }
    },
    {
      "type": "Feature",
      "properties": {
        "norad_id": 40298,
        "name": "ASNARO",
        "group": "resource",
        "lat": -43.1701360189132,
        "lon": 75.4294677387195,
        "alt_km": 517.0996767013839,
        "timestamp": "2025-12-18T15:47:10.877554+00:00",
        "meta_object_name": "ASNARO",
        "meta_object_id": "2014-070A",
        "meta_epoch": "2025-12-18T06:29:45.315168",
        "meta_mean_motion": 15.19608385,
        "meta_eccentricity": 0.00056869,
        "meta_inclination": 97.3653,
        "meta_ra_of_asc_node": 68.0822,
        "meta_arg_of_pericenter": 107.4653,
        "meta_mean_anomaly": 252.7204,
        "meta_ephemeris_type": 0,
        "meta_classification_type": "U",
        "meta_norad_cat_id": 40298,
        "meta_element_set_no": 999,
        "meta_rev_at_epoch": 61653,
        "meta_bstar": 0.00037479028,
        "meta_mean_motion_dot": 7.92e-05,
        "meta_mean_motion_ddot": 0,
        "tle_line1": "1 40298U 14070A   25352.27066337  .00007920  00000+0  37479-3 0  9996",
        "tle_line2": "2 40298  97.3653  68.0822 0005686 107.4653 252.7204 15.19608385616534"
      },
      "geometry": {
        "type": "Point",
        "coordinates": [
          75.4294677387195,
          -43.1701360189132
        ]
      }
    },
    {
      "type": "Feature",
      "properties": {
        "norad_id": 40310,
        "name": "YAOGAN-24",
        "group": "resource",
        "lat": 81.10679736562466,
        "lon": 57.9137136478636,
        "alt_km": 625.2017714556678,
        "timestamp": "2025-12-18T15:47:10.877564+00:00",
        "meta_object_name": "YAOGAN-24",
        "meta_object_id": "2014-072A",
        "meta_epoch": "2025-12-18T07:15:46.196928",
        "meta_mean_motion": 14.76188483,
        "meta_eccentricity": 0.0014955,
        "meta_inclination": 98.1215,
        "meta_ra_of_asc_node": 123.4251,
        "meta_arg_of_pericenter": 121.2406,
        "meta_mean_anomaly": 239.0271,
        "meta_ephemeris_type": 0,
        "meta_classification_type": "U",
        "meta_norad_cat_id": 40310,
        "meta_element_set_no": 999,
        "meta_rev_at_epoch": 59703,
        "meta_bstar": 0.00010269925,
        "meta_mean_motion_dot": 6.58e-06,
        "meta_mean_motion_ddot": 0,
        "tle_line1": "1 40310U 14072A   25352.30261802  .00000658  00000+0  10270-3 0  9992",
        "tle_line2": "2 40310  98.1215 123.4251 0014955 121.2406 239.0271 14.76188483597032"
      },
      "geometry": {
        "type": "Point",
        "coordinates": [
          57.9137136478636,
          81.10679736562466
        ]
      }
    },
    {
      "type": "Feature",
      "properties": {
        "norad_id": 40336,
        "name": "CBERS 4",
        "group": "resource",
        "lat": 41.27852027554042,
        "lon": 43.0819937420664,
        "alt_km": 769.4718176696715,
        "timestamp": "2025-12-18T15:47:10.877574+00:00",
        "meta_object_name": "CBERS 4",
        "meta_object_id": "2014-079A",
        "meta_epoch": "2025-12-18T07:13:40.917792",
        "meta_mean_motion": 14.35519297,
        "meta_eccentricity": 0.00017517,
        "meta_inclination": 98.3308,
        "meta_ra_of_asc_node": 50.1281,
        "meta_arg_of_pericenter": 107.2502,
        "meta_mean_anomaly": 252.8876,
        "meta_ephemeris_type": 0,
        "meta_classification_type": "U",
        "meta_norad_cat_id": 40336,
        "meta_element_set_no": 999,
        "meta_rev_at_epoch": 57800,
        "meta_bstar": 1.7219627e-05,
        "meta_mean_motion_dot": 7e-08,
        "meta_mean_motion_ddot": 0,
        "tle_line1": "1 40336U 14079A   25352.30116803  .00000007  00000+0  17220-4 0  9998",
        "tle_line2": "2 40336  98.3308  50.1281 0001751 107.2502 252.8876 14.35519297578001"
      },
      "geometry": {
        "type": "Point",
        "coordinates": [
          43.0819937420664,
          41.27852027554042
        ]
      }
    },
    {
      "type": "Feature",
      "properties": {
        "norad_id": 40362,
        "name": "YAOGAN-26",
        "group": "resource",
        "lat": 45.02623331235462,
        "lon": -14.00760464983381,
        "alt_km": 440.6683571627964,
        "timestamp": "2025-12-18T15:47:10.877584+00:00",
        "meta_object_name": "YAOGAN-26",
        "meta_object_id": "2014-088A",
        "meta_epoch": "2025-12-18T06:13:47.788896",
        "meta_mean_motion": 15.39496041,
        "meta_eccentricity": 0.00054535,
        "meta_inclination": 97.0636,
        "meta_ra_of_asc_node": 352.7378,
        "meta_arg_of_pericenter": 13.5858,
        "meta_mean_anomaly": 346.5535,
        "meta_ephemeris_type": 0,
        "meta_classification_type": "U",
        "meta_norad_cat_id": 40362,
        "meta_element_set_no": 999,
        "meta_rev_at_epoch": 60979,
        "meta_bstar": 0.00048146445,
        "meta_mean_motion_dot": 0.00018847,
        "meta_mean_motion_ddot": 0,
        "tle_line1": "1 40362U 14088A   25352.25958089  .00018847  00000+0  48146-3 0  9992",
        "tle_line2": "2 40362  97.0636 352.7378 0005453  13.5858 346.5535 15.39496041609794"
      },
      "geometry": {
        "type": "Point",
        "coordinates": [
          -14.00760464983381,
          45.02623331235462
        ]
      }
    }
  ]
}